LUCH (OLYMP-K 1) DEB    
1 67745U 14058D   26115.60525185 -.00000193  00000+0  00000+0 0  9996
2 67745   1.7959  84.4087 1353808 358.0569   1.5822  0.98020868   837
ELEKTRO-L 5             
1 67756U 26028A   26115.19639610 -.00000113  00000+0  00000+0 0  9993
2 67756   0.3626 296.9606 0000987 184.5136 238.5262  1.00271689   721
JAM-E JAM 1             
1 67757U 26028B   26115.93036624  .00000142  00000+0  00000+0 0  9993
2 67757   0.3775 291.2353 0000568 299.3632 352.2414  1.00265363   595
ECHOSTAR 25             
1 68126U 26045A   26114.80851147  .00000000  00000+0  00000+0 0  9996
2 68126   0.0161  49.1041 0002923  45.4072 280.5526  1.00269397   454
SWC-1                   
1 68540U 26069C   26107.51011483 -.00000351  00000+0  00000+0 0  9993
2 68540  28.3533 357.7706 8357664  80.9928 279.0715  1.01840683   168
MERIDIAN-M 21L          
1 68571U 26071A   26107.40118128  .00000032  00000+0  00000+0 0  9997
2 68571  62.7837 236.9223 7214382 285.0073  10.9522  2.00620847   290
FREGAT R/B              
1 68572U 26071B   26093.32132148 -.00001541  00000+0  35052-3 0  9997
2 68572  63.0589 237.9448 7313819 284.9724  10.3188  2.01041412    13
UNKNOWN                 
1 83903U          26115.41994877 -.00000141  00000+0  00000+0 0  9992
2 83903   5.8560 289.4858 0122072 254.8442  86.1383  0.99112109 44982
UNKNOWN                 
1 83934U          26115.44819204 -.00000228  00000+0  00000+0 0  9995
2 83934   5.4837 296.6855 0222598 275.8064 284.4329  1.02662495 46655
UNKNOWN                 
1 84407U          26115.03619068  .00000257  00000+0  45676-1 0  9993
2 84407  19.3934 283.2287 7226110 133.7057 314.8777  2.05819232 78612
UNKNOWN                 
1 84575U          26114.17469331 -.00000150  00000+0  41711-3 0  9990
2 84575  18.0641 113.6489 7127224 104.1646 338.3019  2.19856562 68375
